[{"OBJECT_NAME":"KOREASAT 7","OBJECT_ID":"2017-023A","EPOCH":"2026-03-04T00:53:32.968032","MEAN_MOTION":1.00271592,"ECCENTRICITY":0.0001772,"INCLINATION":0.0307,"RA_OF_ASC_NODE":27.1665,"ARG_OF_PERICENTER":342.3651,"MEAN_ANOMALY":281.5353,"EPHEMERIS_TYPE":0,"CLASSIFICATION_TYPE":"U","NORAD_CAT_ID":42691,"ELEMENT_SET_NO":999,"REV_AT_EPOCH":3231,"BSTAR":0,"MEAN_MOTION_DOT":-3.75e-6,"MEAN_MOTION_DDOT":0},{"OBJECT_NAME":"SGDC","OBJECT_ID":"2017-023B","EPOCH":"2026-03-03T18:13:13.899360","MEAN_MOTION":1.00271776,"ECCENTRICITY":0.0002766,"INCLINATION":0.0203,"RA_OF_ASC_NODE":115.273,"ARG_OF_PERICENTER":241.1092,"MEAN_ANOMALY":3.5813,"EPHEMERIS_TYPE":0,"CLASSIFICATION_TYPE":"U","NORAD_CAT_ID":42692,"ELEMENT_SET_NO":999,"REV_AT_EPOCH":3235,"BSTAR":0,"MEAN_MOTION_DOT":-2.63e-6,"MEAN_MOTION_DDOT":0},{"OBJECT_NAME":"GSAT-9","OBJECT_ID":"2017-024A","EPOCH":"2026-03-04T03:59:38.679360","MEAN_MOTION":1.00271329,"ECCENTRICITY":0.0002033,"INCLINATION":0.1054,"RA_OF_ASC_NODE":281.6524,"ARG_OF_PERICENTER":64.2288,"MEAN_ANOMALY":333.2721,"EPHEMERIS_TYPE":0,"CLASSIFICATION_TYPE":"U","NORAD_CAT_ID":42695,"ELEMENT_SET_NO":999,"REV_AT_EPOCH":3224,"BSTAR":0,"MEAN_MOTION_DOT":-2.99e-6,"MEAN_MOTION_DDOT":0},{"OBJECT_NAME":"INMARSAT 5-F4","OBJECT_ID":"2017-025A","EPOCH":"2026-03-04T02:19:32.223936","MEAN_MOTION":1.00269944,"ECCENTRICITY":1.66e-5,"INCLINATION":0.0201,"RA_OF_ASC_NODE":134.4528,"ARG_OF_PERICENTER":208.4165,"MEAN_ANOMALY":270.345,"EPHEMERIS_TYPE":0,"CLASSIFICATION_TYPE":"U","NORAD_CAT_ID":42698,"ELEMENT_SET_NO":999,"REV_AT_EPOCH":3222,"BSTAR":0,"MEAN_MOTION_DOT":6.3e-7,"MEAN_MOTION_DDOT":0},{"OBJECT_NAME":"SES-15","OBJECT_ID":"2017-026A","EPOCH":"2026-03-04T03:09:12.460608","MEAN_MOTION":1.00270724,"ECCENTRICITY":7.25e-5,"INCLINATION":0.0446,"RA_OF_ASC_NODE":309.4036,"ARG_OF_PERICENTER":34.29,"MEAN_ANOMALY":96.3137,"EPHEMERIS_TYPE":0,"CLASSIFICATION_TYPE":"U","NORAD_CAT_ID":42709,"ELEMENT_SET_NO":999,"REV_AT_EPOCH":637,"BSTAR":0,"MEAN_MOTION_DOT":4.7e-7,"MEAN_MOTION_DDOT":0},{"OBJECT_NAME":"COSMOS 2518","OBJECT_ID":"2017-027A","EPOCH":"2026-03-03T14:20:16.427040","MEAN_MOTION":2.01042527,"ECCENTRICITY":0.7028613,"INCLINATION":63.1153,"RA_OF_ASC_NODE":261.2755,"ARG_OF_PERICENTER":273.5518,"MEAN_ANOMALY":15.4082,"EPHEMERIS_TYPE":0,"CLASSIFICATION_TYPE":"U","NORAD_CAT_ID":42719,"ELEMENT_SET_NO":999,"REV_AT_EPOCH":6428,"BSTAR":0,"MEAN_MOTION_DOT":-4.7e-7,"MEAN_MOTION_DDOT":0},{"OBJECT_NAME":"FREGAT R/B","OBJECT_ID":"2017-027B","EPOCH":"2026-03-03T11:12:59.256000","MEAN_MOTION":2.01955131,"ECCENTRICITY":0.713246,"INCLINATION":62.5127,"RA_OF_ASC_NODE":246.4109,"ARG_OF_PERICENTER":266.8907,"MEAN_ANOMALY":16.9063,"EPHEMERIS_TYPE":0,"CLASSIFICATION_TYPE":"U","NORAD_CAT_ID":42720,"ELEMENT_SET_NO":999,"REV_AT_EPOCH":6469,"BSTAR":-0.003868,"MEAN_MOTION_DOT":-1.352e-5,"MEAN_MOTION_DDOT":0},{"OBJECT_NAME":"QZS-2 (MICHIBIKI-2)","OBJECT_ID":"2017-028A","EPOCH":"2026-03-03T16:34:06.798144","MEAN_MOTION":1.00262193,"ECCENTRICITY":0.07457728,"INCLINATION":39.5914,"RA_OF_ASC_NODE":244.6899,"ARG_OF_PERICENTER":270.3237,"MEAN_ANOMALY":36.6065,"EPHEMERIS_TYPE":0,"CLASSIFICATION_TYPE":"U","NORAD_CAT_ID":42738,"ELEMENT_SET_NO":999,"REV_AT_EPOCH":656,"BSTAR":0,"MEAN_MOTION_DOT":-1.77e-6,"MEAN_MOTION_DDOT":0},{"OBJECT_NAME":"VIASAT-2","OBJECT_ID":"2017-029A","EPOCH":"2026-03-04T01:43:28.181280","MEAN_MOTION":1.00272219,"ECCENTRICITY":6.15e-5,"INCLINATION":0.0245,"RA_OF_ASC_NODE":247.4016,"ARG_OF_PERICENTER":132.12,"MEAN_ANOMALY":98.2655,"EPHEMERIS_TYPE":0,"CLASSIFICATION_TYPE":"U","NORAD_CAT_ID":42740,"ELEMENT_SET_NO":999,"REV_AT_EPOCH":3215,"BSTAR":0,"MEAN_MOTION_DOT":-2.78e-6,"MEAN_MOTION_DDOT":0},{"OBJECT_NAME":"EUTELSAT 172B","OBJECT_ID":"2017-029B","EPOCH":"2026-03-04T02:52:29.064576","MEAN_MOTION":1.00273035,"ECCENTRICITY":1.6e-5,"INCLINATION":0.0193,"RA_OF_ASC_NODE":153.7773,"ARG_OF_PERICENTER":105.4726,"MEAN_ANOMALY":117.7193,"EPHEMERIS_TYPE":0,"CLASSIFICATION_TYPE":"U","NORAD_CAT_ID":42741,"ELEMENT_SET_NO":999,"REV_AT_EPOCH":3268,"BSTAR":0,"MEAN_MOTION_DOT":-1.8e-7,"MEAN_MOTION_DDOT":0},{"OBJECT_NAME":"GSAT-19","OBJECT_ID":"2017-031A","EPOCH":"2026-03-03T20:30:38.659104","MEAN_MOTION":1.00272857,"ECCENTRICITY":0.0003714,"INCLINATION":0.0781,"RA_OF_ASC_NODE":90.7065,"ARG_OF_PERICENTER":293.7812,"MEAN_ANOMALY":132.644,"EPHEMERIS_TYPE":0,"CLASSIFICATION_TYPE":"U","NORAD_CAT_ID":42747,"ELEMENT_SET_NO":999,"REV_AT_EPOCH":3209,"BSTAR":0,"MEAN_MOTION_DOT":1.12e-6,"MEAN_MOTION_DDOT":0},{"OBJECT_NAME":"ECHOSTAR 21","OBJECT_ID":"2017-032A","EPOCH":"2026-03-04T03:49:01.145856","MEAN_MOTION":1.00272272,"ECCENTRICITY":0.000271,"INCLINATION":1.7935,"RA_OF_ASC_NODE":348.8281,"ARG_OF_PERICENTER":338.8391,"MEAN_ANOMALY":261.7306,"EPHEMERIS_TYPE":0,"CLASSIFICATION_TYPE":"U","NORAD_CAT_ID":42749,"ELEMENT_SET_NO":999,"REV_AT_EPOCH":3204,"BSTAR":0,"MEAN_MOTION_DOT":5.3e-7,"MEAN_MOTION_DDOT":0},{"OBJECT_NAME":"ZHONGXING-9A","OBJECT_ID":"2017-035A","EPOCH":"2026-03-04T00:53:32.968032","MEAN_MOTION":0.99784654,"ECCENTRICITY":0.0006037,"INCLINATION":4.7147,"RA_OF_ASC_NODE":76.5344,"ARG_OF_PERICENTER":275.0952,"MEAN_ANOMALY":299.845,"EPHEMERIS_TYPE":0,"CLASSIFICATION_TYPE":"U","NORAD_CAT_ID":42763,"ELEMENT_SET_NO":999,"REV_AT_EPOCH":3260,"BSTAR":0,"MEAN_MOTION_DOT":-3.28e-6,"MEAN_MOTION_DDOT":0},{"OBJECT_NAME":"BULGARIASAT-1","OBJECT_ID":"2017-038A","EPOCH":"2026-03-04T03:46:38.871840","MEAN_MOTION":1.0027344,"ECCENTRICITY":0.0003099,"INCLINATION":0.0454,"RA_OF_ASC_NODE":264.6489,"ARG_OF_PERICENTER":87.5957,"MEAN_ANOMALY":228.2048,"EPHEMERIS_TYPE":0,"CLASSIFICATION_TYPE":"U","NORAD_CAT_ID":42801,"ELEMENT_SET_NO":999,"REV_AT_EPOCH":3178,"BSTAR":0,"MEAN_MOTION_DOT":-1.0e-8,"MEAN_MOTION_DDOT":0},{"OBJECT_NAME":"HELLAS-SAT 3","OBJECT_ID":"2017-040A","EPOCH":"2026-03-04T01:21:38.630304","MEAN_MOTION":1.0027568,"ECCENTRICITY":0.0005098,"INCLINATION":0.0551,"RA_OF_ASC_NODE":28.724,"ARG_OF_PERICENTER":332.5544,"MEAN_ANOMALY":219.9546,"EPHEMERIS_TYPE":0,"CLASSIFICATION_TYPE":"U","NORAD_CAT_ID":42814,"ELEMENT_SET_NO":999,"REV_AT_EPOCH":3175,"BSTAR":0,"MEAN_MOTION_DOT":1.39e-6,"MEAN_MOTION_DDOT":0},{"OBJECT_NAME":"GSAT-17","OBJECT_ID":"2017-040B","EPOCH":"2026-03-04T00:47:18.567456","MEAN_MOTION":1.00270146,"ECCENTRICITY":0.0005074,"INCLINATION":0.0414,"RA_OF_ASC_NODE":300.1869,"ARG_OF_PERICENTER":347.0571,"MEAN_ANOMALY":339.8674,"EPHEMERIS_TYPE":0,"CLASSIFICATION_TYPE":"U","NORAD_CAT_ID":42815,"ELEMENT_SET_NO":999,"REV_AT_EPOCH":3173,"BSTAR":0,"MEAN_MOTION_DOT":-2.7e-6,"MEAN_MOTION_DDOT":0},{"OBJECT_NAME":"INTELSAT 35E (IS-35E)","OBJECT_ID":"2017-041A","EPOCH":"2026-03-04T03:36:09.876384","MEAN_MOTION":1.00271073,"ECCENTRICITY":0.0002238,"INCLINATION":0.03,"RA_OF_ASC_NODE":249.2869,"ARG_OF_PERICENTER":93.2262,"MEAN_ANOMALY":198.9033,"EPHEMERIS_TYPE":0,"CLASSIFICATION_TYPE":"U","NORAD_CAT_ID":42818,"ELEMENT_SET_NO":999,"REV_AT_EPOCH":3176,"BSTAR":0,"MEAN_MOTION_DOT":-2.51e-6,"MEAN_MOTION_DDOT":0}]
