KOREASAT 7              
1 42691U 17023A   26063.03718713 -.00000375  00000+0  00000+0 0  9996
2 42691   0.0307  27.1665 0001772 342.3651 281.5353  1.00271592 32315
SGDC                    
1 42692U 17023B   26062.75918865 -.00000263  00000+0  00000+0 0  9991
2 42692   0.0203 115.2730 0002766 241.1092   3.5813  1.00271776 32353
GSAT-9                  
1 42695U 17024A   26063.16641990 -.00000299  00000+0  00000+0 0  9992
2 42695   0.1054 281.6524 0002033  64.2288 333.2721  1.00271329 32241
INMARSAT 5-F4           
1 42698U 17025A   26063.09690074  .00000063  00000+0  00000+0 0  9993
2 42698   0.0201 134.4528 0000166 208.4165 270.3450  1.00269944 32225
SES-15                  
1 42709U 17026A   26063.13139422  .00000047  00000+0  00000+0 0  9999
2 42709   0.0446 309.4036 0000725  34.2900  96.3137  1.00270724  6373
COSMOS 2518             
1 42719U 17027A   26062.59741235 -.00000047  00000+0  00000+0 0  9992
2 42719  63.1153 261.2755 7028613 273.5518  15.4082  2.01042527 64283
FREGAT R/B              
1 42720U 17027B   26062.46735250 -.00001352  00000+0 -38680-2 0  9999
2 42720  62.5127 246.4109 7132460 266.8907  16.9063  2.01955131 64694
QZS-2 (MICHIBIKI-2)     
1 42738U 17028A   26062.69035646 -.00000177  00000+0  00000+0 0  9991
2 42738  39.5914 244.6899 0745772 270.3237  36.6065  1.00262193  6562
VIASAT-2                
1 42740U 17029A   26063.07185395 -.00000278  00000+0  00000+0 0  9997
2 42740   0.0245 247.4016 0000615 132.1200  98.2655  1.00272219 32155
EUTELSAT 172B           
1 42741U 17029B   26063.11978084 -.00000018  00000+0  00000+0 0  9990
2 42741   0.0193 153.7773 0000160 105.4726 117.7193  1.00273035 32687
GSAT-19                 
1 42747U 17031A   26062.85461411  .00000112  00000+0  00000+0 0  9994
2 42747   0.0781  90.7065 0003714 293.7812 132.6440  1.00272857 32092
ECHOSTAR 21             
1 42749U 17032A   26063.15904104  .00000053  00000+0  00000+0 0  9996
2 42749   1.7935 348.8281 0002710 338.8391 261.7306  1.00272272 32049
ZHONGXING-9A            
1 42763U 17035A   26063.03718713 -.00000328  00000+0  00000+0 0  9997
2 42763   4.7147  76.5344 0006037 275.0952 299.8450  0.99784654 32602
BULGARIASAT-1           
1 42801U 17038A   26063.15739435 -.00000001  00000+0  00000+0 0  9998
2 42801   0.0454 264.6489 0003099  87.5957 228.2048  1.00273440 31787
HELLAS-SAT 3            
1 42814U 17040A   26063.05669711  .00000139  00000+0  00000+0 0  9994
2 42814   0.0551  28.7240 0005098 332.5544 219.9546  1.00275680 31754
GSAT-17                 
1 42815U 17040B   26063.03285379 -.00000270  00000+0  00000+0 0  9994
2 42815   0.0414 300.1869 0005074 347.0571 339.8674  1.00270146 31736
INTELSAT 35E (IS-35E)   
1 42818U 17041A   26063.15011431 -.00000251  00000+0  00000+0 0  9996
2 42818   0.0300 249.2869 0002238  93.2262 198.9033  1.00271073 31768
